ONEWEB-0235             
1 48771U 21045E   25271.64321093  .00000244  00000+0  61476-3 0  9990
2 48771  87.9000 311.3794 0001432 108.0133 252.1154 13.15550121209990
ONEWEB-0242             
1 48772U 21045F   25271.86501895  .00000287  00000+0  72888-3 0  9991
2 48772  87.9006 311.3228 0001620  94.8887 265.2428 13.15550627210066
ONEWEB-0241             
1 48773U 21045G   25271.47206612  .00000096  00000+0  22023-3 0  9992
2 48773  87.8993 311.4466 0001738 110.3367 249.7950 13.15550130209922
ONEWEB-0243             
1 48774U 21045H   25271.19952537  .00000010  00000+0 -63882-5 0  9993
2 48774  87.9008 311.5050 0001420  99.6993 260.4298 13.15546911209919
ONEWEB-0222             
1 48775U 21045J   25271.63924900  .00000159  00000+0  38774-3 0  9999
2 48775  87.9004 311.3697 0001721  99.2647 260.8678 13.15547469210015
ONEWEB-0244             
1 48776U 21045K   25271.58930990 -.00000008  00000+0 -54564-4 0  9991
2 48776  87.9012 311.3625 0001652  93.7310 266.4009 13.15546446210570
ONEWEB-0247             
1 48777U 21045L   25271.89038367  .00000164  00000+0  40105-3 0  9999
2 48777  87.9000 311.3695 0000950 117.6487 242.4740 13.15547708210057
ONEWEB-0245             
1 48778U 21045M   25271.12506718  .00000111  00000+0  25947-3 0  9995
2 48778  87.9001 311.4859 0001889 102.5636 257.5706 13.15548181209922
